1 08820U 76039A   03064.76247859 -.00000000  00000-0  10000-3 0  9113
2 08820 109.8259 146.1958 0044437 323.5020  36.2700  6.38664573370450
